NORAD_CAT_ID,OBJECT_NAME,OBJECT_TYPE,EPOCH,MEAN_MOTION,ECCENTRICITY,INCLINATION,RA_OF_ASC_NODE,ARG_OF_PERICENTER,MEAN_ANOMALY,BSTAR,MEAN_MOTION_DOT,MEAN_MOTION_DDOT,TLE_LINE0,TLE_LINE1,TLE_LINE2,SEMIMAJOR_AXIS,PERIOD,APOGEE,PERIGEE,DECAYED
50201.0,STARLINK-3255,PAYLOAD,2024-04-05 04:56:04,15.08846891,0.0001352,53.2168,157.1921,91.5357,268.579,0.00024945,3.685e-05,0.0,0 STARLINK-3255,1 50201U 21125AX  24096.20560621  .00003685  00000-0  24945-3 0  9991,2 50201  53.2168 157.1921 0001352  91.5357 268.5790 15.08846891130058,6917.859,95.437,540.66,538.789,0.0
50201.0,STARLINK-3255,PAYLOAD,2024-04-05 11:17:36,15.08856258,0.0001337,53.216,156.0029,95.0473,265.0672,0.0007795,0.00012145,0.0,0 STARLINK-3255,1 50201U 21125AX  24096.47056527  .00012145  00000-0  77950-3 0  9990,2 50201  53.2160 156.0029 0001337  95.0473 265.0672 15.08856258130574,6917.831,95.437,540.621,538.771,0.0
50201.0,STARLINK-3255,PAYLOAD,2024-04-05 20:49:55,15.08860779,0.0001328,53.2159,154.2189,95.2006,264.9137,0.00059908,9.265e-05,0.0,0 STARLINK-3255,1 50201U 21125AX  24096.86800076  .00009265  00000-0  59908-3 0  9991,2 50201  53.2159 154.2189 0001328  95.2006 264.9137 15.08860779130637,6917.817,95.436,540.601,538.763,0.0
50201.0,STARLINK-3255,PAYLOAD,2024-04-06 12:43:47,15.08840143,0.0001492,53.2157,151.245,97.4715,262.6447,0.00022944,3.365e-05,0.0,0 STARLINK-3255,1 50201U 21125AX  24097.53040565  .00003365  00000-0  22944-3 0  9990,2 50201  53.2157 151.2450 0001492  97.4715 262.6447 15.08840143130256,6917.88,95.438,540.777,538.713,0.0
50201.0,STARLINK-3255,PAYLOAD,2024-04-06 22:16:06,15.08841414,0.0001516,53.2151,149.4609,98.9059,261.2105,0.00062975,9.749e-05,0.0,0 STARLINK-3255,1 50201U 21125AX  24097.92784768  .00009749  00000-0  62975-3 0  9993,2 50201  53.2151 149.4609 0001516  98.9059 261.2105 15.08841414130796,6917.876,95.437,540.79,538.692,0.0
50201.0,STARLINK-3255,PAYLOAD,2024-04-07 09:23:48,15.0883765,0.0001595,53.2152,147.3789,94.9424,265.175,0.00034997,5.286e-05,0.0,0 STARLINK-3255,1 50201U 21125AX  24098.39153179  .00005286  00000-0  34997-3 0  9996,2 50201  53.2152 147.3789 0001595  94.9424 265.1750 15.08837650130383,6917.888,95.438,540.856,538.649,0.0
50201.0,STARLINK-3255,PAYLOAD,2024-04-07 20:31:30,15.08840429,0.0001544,53.2147,145.2964,94.3371,265.7797,0.00036619,5.545e-05,0.0,0 STARLINK-3255,1 50201U 21125AX  24098.85521267  .00005545  00000-0  36619-3 0  9995,2 50201  53.2147 145.2964 0001544  94.3371 265.7797 15.08840429130934,6917.879,95.438,540.812,538.676,0.0
50201.0,STARLINK-3255,PAYLOAD,2024-04-08 09:14:35,15.08846346,0.0001565,53.2146,142.9173,93.259,266.8581,0.00037989,5.764e-05,0.0,0 STARLINK-3255,1 50201U 21125AX  24099.38513162  .00005764  00000-0  37989-3 0  9993,2 50201  53.2146 142.9173 0001565  93.2590 266.8581 15.08846346131010,6917.861,95.437,540.809,538.643,0.0
50201.0,STARLINK-3255,PAYLOAD,2024-04-09 02:43:49,15.0885065,0.0001549,53.2143,139.6468,90.8947,269.2222,0.00037577,5.699e-05,0.0,0 STARLINK-3255,1 50201U 21125AX  24100.11376916  .00005699  00000-0  37577-3 0  9991,2 50201  53.2143 139.6468 0001549  90.8947 269.2222 15.08850650130648,6917.848,95.437,540.784,538.641,0.0
50201.0,STARLINK-3255,PAYLOAD,2024-04-09 09:05:22,15.0884651,0.0001498,53.2147,138.457,91.0691,269.0473,0.0002388,3.515e-05,0.0,0 STARLINK-3255,1 50201U 21125AX  24100.37872970  .00003515  00000-0  23880-3 0  9997,2 50201  53.2147 138.4570 0001498  91.0691 269.0473 15.08846510131169,6917.86,95.437,540.762,538.689,0.0
50201.0,STARLINK-3255,PAYLOAD,2024-04-10 12:06:55,15.0884674,0.0001418,53.2153,133.4024,87.0358,273.0796,0.0001014,1.326e-05,0.0,0 STARLINK-3255,1 50201U 21125AX  24101.50480562  .00001326  00000-0  10140-3 0  9998,2 50201  53.2153 133.4024 0001418  87.0358 273.0796 15.08846740130855,6917.86,95.437,540.706,538.744,0.0
50201.0,STARLINK-3255,PAYLOAD,2024-04-11 05:36:10,15.08834369,0.0001392,53.215,130.1314,86.562,273.5531,-2.9616e-05,-7.59e-06,0.0,0 STARLINK-3255,1 50201U 21125AX  24102.23345197 -.00000759  00000-0 -29616-4 0  9993,2 50201  53.2150 130.1314 0001392  86.5620 273.5531 15.08834369130963,6917.898,95.438,540.726,538.8,0.0
50201.0,STARLINK-3255,PAYLOAD,2024-04-11 08:46:56,15.08832481,0.0001341,53.216,129.5352,87.4107,272.7039,-1.795e-05,-5.73e-06,0.0,0 STARLINK-3255,1 50201U 21125AX  24102.36593648 -.00000573  00000-0 -17950-4 0  9995,2 50201  53.2160 129.5352 0001341  87.4107 272.7039 15.08832481131465,6917.903,95.438,540.696,538.841,0.0
50201.0,STARLINK-3255,PAYLOAD,2024-04-11 18:19:15,15.08834619,0.0001347,53.2161,127.7507,86.2108,273.9038,1.7764e-05,-5e-08,0.0,0 STARLINK-3255,1 50201U 21125AX  24102.76337568 -.00000005  00000-0  17764-4 0  9998,2 50201  53.2161 127.7507 0001347  86.2108 273.9038 15.08834619131526,6917.897,95.438,540.694,538.83,0.0
50201.0,STARLINK-3255,PAYLOAD,2024-04-12 08:37:43,15.08840606,0.000137,53.2161,125.0733,83.0428,277.072,7.7951e-05,9.53e-06,0.0,0 STARLINK-3255,1 50201U 21125AX  24103.35953106  .00000953  00000-0  77951-4 0  9991,2 50201  53.2161 125.0733 0001370  83.0428 277.0720 15.08840606131137,6917.879,95.438,540.691,538.796,0.0
50201.0,STARLINK-3255,PAYLOAD,2024-04-13 10:03:53,15.08838014,0.0001337,53.216,120.3165,89.6214,270.4932,0.00013777,1.905e-05,0.0,0 STARLINK-3255,1 50201U 21125AX  24104.41937404  .00001905  00000-0  13777-3 0  9995,2 50201  53.2160 120.3165 0001337  89.6214 270.4932 15.08838014131290,6917.886,95.438,540.676,538.827,0.0
50201.0,STARLINK-3255,PAYLOAD,2024-04-14 05:08:32,15.08836468,0.0001475,53.217,116.7484,91.2107,268.9054,2.8379e-05,1.64e-06,0.0,0 STARLINK-3255,1 50201U 21125AX  24105.21426064  .00000164  00000-0  28379-4 0  9990,2 50201  53.2170 116.7484 0001475  91.2107 268.9054 15.08836468131419,6917.891,95.438,540.777,538.736,0.0
50201.0,STARLINK-3255,PAYLOAD,2024-04-14 08:19:18,15.08837369,0.0001442,53.2167,116.1531,92.795,267.3207,1.5799e-05,-3.7e-07,0.0,0 STARLINK-3255,1 50201U 21125AX  24105.34674002 -.00000037  00000-0  15799-4 0  9993,2 50201  53.2167 116.1531 0001442  92.7950 267.3207 15.08837369131917,6917.888,95.438,540.751,538.756,0.0
50201.0,STARLINK-3255,PAYLOAD,2024-04-15 04:59:18,15.08844371,0.0001453,53.2169,112.2875,93.0274,267.0884,0.0001137,1.522e-05,0.0,0 STARLINK-3255,1 50201U 21125AX  24106.20785338  .00001522  00000-0  11370-3 0  9993,2 50201  53.2169 112.2875 0001453  93.0274 267.0884 15.08844371131562,6917.867,95.437,540.737,538.727,0.0
50201.0,STARLINK-3255,PAYLOAD,2024-04-15 09:45:27,15.08848007,0.0001491,53.2169,111.395,91.5358,268.5805,0.00014499,2.021e-05,0.0,0 STARLINK-3255,1 50201U 21125AX  24106.40657042  .00002021  00000-0  14499-3 0  9995,2 50201  53.2169 111.3950 0001491  91.5358 268.5805 15.08848007132070,6917.856,95.437,540.752,538.689,0.0
50201.0,STARLINK-3255,PAYLOAD,2024-04-16 06:25:28,15.08846657,0.0001551,53.2169,107.528,117.3437,242.7713,0.000133,1.83e-05,0.0,0 STARLINK-3255,1 50201U 21125AX  24107.26768972  .00001830  00000-0  13300-3 0  9992,2 50201  53.2169 107.5280 0001551 117.3437 242.7713 15.08846657131727,6917.86,95.437,540.798,538.652,0.0
50201.0,STARLINK-3255,PAYLOAD,2024-04-17 04:40:52,15.08846209,0.0001508,53.2156,103.3659,95.121,264.9955,6.4242e-05,7.35e-06,0.0,0 STARLINK-3255,1 50201U 21125AX  24108.19505101  .00000735  00000-0  64242-4 0  9993,2 50201  53.2156 103.3659 0001508  95.1210 264.9955 15.08846209131863,6917.861,95.437,540.77,538.683,0.0
50201.0,STARLINK-3255,PAYLOAD,2024-04-17 06:16:15,15.08846551,0.0001492,53.2155,103.0685,94.1601,265.9561,6.1401e-05,6.9e-06,0.0,0 STARLINK-3255,1 50201U 21125AX  24108.26129068  .00000690  00000-0  61401-4 0  9999,2 50201  53.2155 103.0685 0001492  94.1601 265.9561 15.08846551132352,6917.86,95.437,540.758,538.693,0.0
50201.0,STARLINK-3255,PAYLOAD,2024-04-18 04:31:39,15.08833782,0.0001963,53.2155,98.9055,130.6948,229.4215,1.5473e-05,-4.2e-07,0.0,0 STARLINK-3255,1 50201U 21125AX  24109.18865698 -.00000042  00000-0  15473-4 0  9997,2 50201  53.2155  98.9055 0001963 130.6948 229.4215 15.08833782132014,6917.899,95.438,541.122,538.406,0.0
50201.0,STARLINK-3255,PAYLOAD,2024-04-18 09:17:49,15.08831276,0.0001655,53.215,98.0144,116.7903,243.3258,-6.784e-05,-1.367e-05,0.0,0 STARLINK-3255,1 50201U 21125AX  24109.38738051 -.00001367  00000-0 -67840-4 0  9998,2 50201  53.2150  98.0144 0001655 116.7903 243.3258 15.08831276132527,6917.907,95.438,540.917,538.627,0.0
50201.0,STARLINK-3255,PAYLOAD,2024-04-19 04:22:27,15.08836821,0.0001393,53.2162,94.4455,103.39,256.7248,8.7524e-05,1.105e-05,0.0,0 STARLINK-3255,1 50201U 21125AX  24110.18226165  .00001105  00000-0  87524-4 0  9995,2 50201  53.2162  94.4455 0001393 103.3900 256.7248 15.08836821132644,6917.89,95.438,540.719,538.791,0.0
50201.0,STARLINK-3255,PAYLOAD,2024-04-20 04:13:14,15.08841948,0.0001193,53.2161,89.9868,77.7417,282.3709,0.00023983,3.531e-05,0.0,0 STARLINK-3255,1 50201U 21125AX  24111.17586206  .00003531  00000-0  23983-3 0  9993,2 50201  53.2161  89.9868 0001193  77.7417 282.3709 15.08841948132312,6917.874,95.437,540.565,538.914,0.0
50201.0,STARLINK-3255,PAYLOAD,2024-04-20 21:42:29,15.08837141,0.0001373,53.2166,86.7175,101.6218,258.4929,5.4993e-05,5.87e-06,0.0,0 STARLINK-3255,1 50201U 21125AX  24111.90450465  .00000587  00000-0  54993-4 0  9995,2 50201  53.2166  86.7175 0001373 101.6218 258.4929 15.08837141132902,6917.889,95.438,540.704,538.804,0.0
50201.0,STARLINK-3255,PAYLOAD,2024-04-21 04:04:02,15.0882975,0.0001909,53.2158,85.5135,135.3458,224.7688,-7.9223e-05,-1.548e-05,0.0,0 STARLINK-3255,1 50201U 21125AX  24112.16946898 -.00001548  00000-0 -79223-4 0  9997,2 50201  53.2158  85.5135 0001909 135.3458 224.7688 15.08829750132467,6917.912,95.438,541.097,538.456,0.0
50201.0,STARLINK-3255,PAYLOAD,2024-04-21 07:14:49,15.08818304,0.0001673,53.217,84.925,105.5107,254.607,-0.00019783,-3.433e-05,0.0,0 STARLINK-3255,1 50201U 21125AX  24112.30195859 -.00003433  00000-0 -19783-3 0  9995,2 50201  53.2170  84.9250 0001673 105.5107 254.6070 15.08818304132965,6917.947,95.439,540.969,538.654,0.0
